[
    {
        "Altitude(m)": 617710.6816490893,
        "Argument of Periapsis(deg)": 0.0,
        "Eccentricity": 0.0,
        "Inclination(deg)": 60.0,
        "Latitude(deg)": -41.10277381227897,
        "Longitude(deg)": -150.03342367935613,
        "Mean Anomaly(deg)": -49.09089999999994,
        "RAAN(deg)": 340.00000000000006,
        "Satellite Name": "Test1 1515",
        "Satellite Number": 1515,
        "Semi-Major Axis(m)": 6980739.136638005,
        "Time(s)": 0
    },
    {
        "Altitude(m)": 617517.9802385439,
        "Argument of Periapsis(deg)": 0.00010418945913296404,
        "Eccentricity": 0.0,
        "Inclination(deg)": 60.0,
        "Latitude(deg)": -40.63698131112216,
        "Longitude(deg)": -149.53662835529352,
        "Mean Anomaly(deg)": -48.470793854538094,
        "RAAN(deg)": 339.99957995086027,
        "Satellite Name": "Test1 1515",
        "Satellite Number": 1515,
        "Semi-Major Axis(m)": 6980739.136638005,
        "Time(s)": 10
    }
]